[{"OBJECT_NAME":"STARLINK-32766","OBJECT_ID":"2025-006W","EPOCH":"2026-03-09T00:59:06.886752","MEAN_MOTION":15.27618096,"ECCENTRICITY":0.00016783,"INCLINATION":42.999,"RA_OF_ASC_NODE":296.2162,"ARG_OF_PERICENTER":258.4576,"MEAN_ANOMALY":101.6088,"EPHEMERIS_TYPE":0,"CLASSIFICATION_TYPE":"U","NORAD_CAT_ID":62574,"ELEMENT_SET_NO":999,"REV_AT_EPOCH":6476,"BSTAR":0.0010663803,"MEAN_MOTION_DOT":0.00029233,"MEAN_MOTION_DDOT":0},{"OBJECT_NAME":"GEOSCAN 4 (RS92S4)","OBJECT_ID":"2025-155S","EPOCH":"2026-03-09T21:50:07.724832","MEAN_MOTION":15.30369837,"ECCENTRICITY":0.00070968,"INCLINATION":97.4465,"RA_OF_ASC_NODE":37.7626,"ARG_OF_PERICENTER":154.7045,"MEAN_ANOMALY":205.4544,"EPHEMERIS_TYPE":0,"CLASSIFICATION_TYPE":"U","NORAD_CAT_ID":64892,"ELEMENT_SET_NO":999,"REV_AT_EPOCH":6562,"BSTAR":0.00068609503,"MEAN_MOTION_DOT":0.00020121,"MEAN_MOTION_DDOT":0}]
